#dP2023  5 11  0  0  0.00000000      96 __u+U IGS14 FIT  IAC
## 2261 345600.00000000   900.00000000 60075 0.0000000000000
+  118   C06C07C08C09C10C11C12C13C14C16C19C20C21C22C23C24C25
+        C26C27C28C29C30C32C33C34C35C36C37C38C39C40C41C42C43
+        C44C45C46E02E04E05E07E08E09E10E11E12E13E14E15E18E19
+        E21E24E25E26E27E30E31E33E34E36G01G02G03G04G05G06G07
+        G08G09G10G11G12G13G14G15G16G17G18G19G20G21G22G23G24
+        G25G26G27G28G29G30G31G32J02J03J04R01R02R03R04R05R07
+        R08R09R11R12R13R14R15R16R17R18R19R20R21R22R24R25  0
++         7  7  7  7  7  7  7  7  7  7  5  6  6  6  6  6  6
++         6  6  6  5  6  6  6  6  6  6  6  6  6  6  6  6  6
++         6  6  6  4  5  4  4  4  5  4  4  4  4  5  4  4  5
++         4  4  4  4  4  4  4  4  4  5  4  3  4  3  3  4  3
++         3  4  3  3  4  3  4  4  3  4  3  4  3  3  4  3  4
++         3  4  3  4  3  3  4  4  9  9 10  8  7  7  7  7  6
++         6  7  6  7  8  6  6  7  7  7  8  8  7  6  7  8  0
%c M  cc GPS ccc cccc cccc cccc cccc ccccc ccccc ccccc ccccc
%c cc cc ccc ccc cccc cccc cccc cccc ccccc ccccc ccccc ccccc
%f  1.2500000  1.025000000  0.00000000000  0.000000000000000
%f  0.0000000  0.000000000  0.00000000000  0.000000000000000
%i    0    0    0    0      0      0      0      0         0
%i    0    0    0    0      0      0      0      0         0
/* INFORMATION & ANALYSIS CENTER (IAC)            FINAL DATA
/* S/V CLOCKS ARE ALIGNED TO GNSS TIME                      
/* G:C1WC2W R:C1PC2P E:C1XC5X C:C2IC6I J:C1CC2S             
/* PCV:IGS20_2247 OL/AL:FES2004  NONE     YN ORB:CoN CLK:CoN
*  2023 05 11 16 45  0.00000000
PC06   -626.599026  32077.905064  27536.649919   -192.228989
PC07 -16472.925312  28002.641272 -26923.823748     -3.458791
PC08 -13564.089211  39754.749825   2361.382556    487.690580
PC09   6857.207096  36409.757530  21063.925759    665.735258
PC10  -7565.560493  28407.947328 -30073.751885    -55.715965
PC11 -22695.391074  -8175.602597 -13985.409005    613.688582
PC12 -19164.731882 -20012.644298   3363.878251    631.941057
PC13  -7898.609648  40255.327387   9317.670230    272.340522
PC14 -26294.937151   2931.522905  -8952.918786    245.135548
PC16  -3541.347433  29772.629890  30002.842024     81.751799
PC19  26218.711964  -9510.113558   -159.893160   -909.101070
PC20  23002.117678   2985.119772  15505.944620    574.204240
PC21  -5615.742492 -14676.584618 -23040.935900   -914.072349
PC22  14445.233216 -17151.603838 -16585.997459   -493.286477
PC23  -9841.852106  25133.488358   7089.805616   -925.993119
PC24 -13486.042479 -11820.411892  21375.383029    -66.580091
PC25 -16215.896547  10952.457491  19879.864033    124.460708
PC26  -3901.022869 -25380.859428  10950.279839   -118.839541
PC27  13370.269534  21869.130840 -11074.456105    138.672610
PC28  -3005.990726  17358.343818 -21643.501090    102.534046
PC29  19432.613816  -2206.291899  19896.621201    118.997174
PC30  23495.081391  14079.241299   5391.351496     -0.177181
PC32   5612.215181  14708.814497  23060.905862   -564.009572
PC33 -26195.047667   9658.898056    118.772934   -880.597770
PC34 -23691.521957 -13139.279947  -6661.368961    168.427850
PC35   3208.402732 -17073.759745  21815.639469    629.511328
PC36  16550.032483  -9805.047765 -20194.668699   -447.857512
PC37   2515.112312  25938.574523  -9940.527552   -784.574767
PC38 -17196.368024  37957.551432  -5935.915834     77.668982
PC39  -6973.888588  26192.748713  32411.686729     -2.896128
PC40 -22386.407897  21772.945637 -28462.614144    -22.898164
PC41 -15000.102388  17175.094881  16152.617358   -947.477070
PC42 -22250.755878  -3873.717874 -16362.487948   -696.611908
PC43 -19965.159272   1521.884679 -19442.254167     20.915353
PC44 -13979.885536 -21394.188614  11150.812073    103.420761
PC45   9560.662149 -25366.421186  -6667.768934    -96.276974
PC46  14006.975727  10087.928637 -21920.989587    -53.289759
PE02 -21259.179973  20392.809730   2805.542434     37.530530
PE04  -1476.189461 -17457.206464 -23845.355805   -120.035167
PE05 -29121.421347  -3137.491943   4302.382145    -68.432599
PE07  21617.829378  14647.298893  13940.634967    -44.288674
PE08   1178.285448  17285.587682  24006.018116    -81.419688
PE09 -21555.800355 -14583.503230 -14106.529714    -11.145950
PE10  -9561.047809 -28007.634006   -554.229572   -532.968004
PE11 -14868.468284 -23191.704891 -10817.141414   1892.192591
PE12  -3097.771915 -28072.955515   8811.641129   -534.369454
PE13  14555.562465  23722.226520  10093.792733    -19.134288
PE14 -30660.826122  -5777.233073  -4664.005817    222.229152
PE15   2934.433982  27999.999713  -9161.785737    -21.016674
PE18  22639.196543   9724.665944  -2280.849829     52.027585
PE19  21456.849075  -8498.148900 -18521.568067  -2558.108826
PE21  22382.999949  -5770.507931 -18493.600756   -528.509583
PE24 -10023.438149 -13742.525027  24210.165255    -93.106253
PE25 -22283.971839   5443.782641  18707.708826   -604.885588
PE26  17547.631627   4717.104342  23365.207761    101.194470
PE27  10680.853300  13046.705504 -24328.130578    -46.924993
PE30  -7734.546052  24099.473673 -15350.307639   -164.593826
PE31   7191.323655 -23992.346364  15779.761337   -523.521397
PE33  10334.257438 -15701.338342  22859.152276   -444.605387
PE34 -10223.842540  15875.400755 -22805.329082    -44.872856
PE36 -17507.439095  -5590.422954 -23203.519818    -54.570996
PG01  14588.407938   -890.292468  21865.877712    186.124304
PG02   9359.971567  25055.092832    285.016136   -597.255568
PG03  21313.497771 -10437.923925  11670.864983   -306.245308
PG04  23956.386402  -1250.918969 -11510.897163     38.837019
PG05 -15608.259516  -4553.335876 -21197.389258   -126.800218
PG06  -4822.484781 -25893.170380   3040.623583    588.107239
PG07   8824.836948 -16654.002277 -18060.464613    180.738828
PG08  26015.996989   6331.060863   -434.828775   -121.921459
PG09  16519.767918  -9567.491072 -18553.968442   -161.116196
PG10  -7310.789945  21141.530206  14251.515591    -36.498778
PG11 -12499.086505 -20619.093328 -11175.436845   -193.160565
PG12 -21683.581420   6774.804158  13409.411227   -374.761517
PG13 -22105.918979 -13684.300851  -6117.057080    518.478253
PG14  10451.722694 -21421.580354  11572.672010     53.423970
PG15 -26487.249434  -3400.875694   -490.595106     38.601538
PG16  12894.101738   8849.656904 -21817.722276   -501.892188
PG17   1429.923197 -15307.778001  22078.822951    714.398353
PG18  -6625.557499  19582.503526 -16589.474686   -261.967063
PG19  -8605.134251 -16775.093412  18601.688113    315.508566
PG20  -9435.100749 -12988.055662 -21152.329122    434.145775
PG21  17359.857711   8208.699149  19248.008132    153.872577
PG22  11622.134961  16918.025802  17395.436399    479.564983
PG23 -16325.234648  20621.713511   3055.821417     23.380801
PG24 -16935.397304  -3167.327267  19955.946267   -184.927852
PG25 -20014.330399  16679.798352   4051.108579    442.079388
PG26   3112.986487  18114.914738 -19173.040312    240.918605
PG27  20773.037939  13074.102288 -10910.231327     39.697253
PG28   4535.065451  25717.248352   4841.366362     76.549200
PG29 -19593.591835   5541.944085 -17157.591861   -599.035915
PG30   1251.609547 -24330.379205 -10138.926111   -517.765108
PG31  10059.506713  23723.064137  -5589.144090   -215.893611
PG32   2513.241503  15999.011647  21265.112123   -473.972170
PJ02 -34674.039866  24123.526147   3924.974077      0.063768
PJ03 -20912.912334  21472.853203 -25063.510860      3.931716
PJ04 -28511.914998  30701.183104  11686.786335     94.484582
PR01 -14790.864888  11276.206297  17472.687464     57.302912
PR02   4612.076751  10195.141415  22976.327464    -22.854458
PR03  20692.618465   3635.030320  14557.023708     77.629489
PR04  25031.454139  -4629.485517  -1673.071993    186.776208
PR05  15890.479378 -10405.161101 -17020.164201    112.392683
PR07 -21160.613286  -3217.541161 -13794.715315     55.699628
PR08 -24932.044944   4946.214080   2033.111431    -70.727632
PR09    716.278293 -21793.188757  13186.988050    119.596361
PR11 -13293.910828   9092.241271  19796.128974    -53.735468
PR12 -10649.842072  22795.144092   4180.262514     27.175881
PR13  -2228.060654  22604.547841 -11621.970760    -34.926807
PR14   8647.739341   8179.691981 -22551.085959     24.655991
PR15  13574.277730 -10125.555558 -19054.306442     89.389463
PR16  10546.396691 -22768.534967  -4477.366918     14.445274
PR17  17834.348293  16332.747261   8062.715659    629.053201
PR18  14615.238761   3563.802524  20624.843166     81.000137
PR19   5240.508275  -9990.994442  22870.604061   -232.245917
PR20  -9881.413366 -21088.598029  10355.376453    -92.697290
PR21 -17828.953278 -15570.050621  -9540.302526     -6.683772
PR22 -14342.194378  -2932.289090 -20862.968338     81.783867
PR24  10851.932248  20956.921183  -9658.354623    169.422996
PR25 -17141.594245 -17197.163412  -7843.718649     60.886031
EOF
